FENGYUN 1C DEB          
1 31511U 99025BXA 17345.09025995  .00000713  00000-0  37255-3 0  9991
2 31511  98.9944  70.0314 0134545 256.2186 102.3982 14.13181307545674
